{
  "norad_id": 67195,
  "name": "STARLINK-36291",
  "history": [
    {
      "epoch": "2026-03-28T19:26:47.280480Z",
      "apogee_km": 574.5682922527385,
      "perigee_km": 569.5424691384096,
      "latitude_deg": 2.4728990171782245e-05,
      "longitude_deg": 8.531533046430027,
      "height_km": 574.5101190454375,
      "semi_major_axis_km": 6950.192380695574,
      "eccentricity": 0.00036156,
      "inclination_deg": 70.0014,
      "raan_deg": 126.4539,
      "arg_perigee_deg": 269.3935,
      "mean_anomaly_deg": 90.681,
      "mean_motion_rev_day": 14.98330165
    },
    {
      "epoch": "2026-03-29T05:03:35.609184Z",
      "apogee_km": 574.72890084551,
      "perigee_km": 569.3494644801294,
      "latitude_deg": -5.84401788431726e-05,
      "longitude_deg": -137.07437594594288,
      "height_km": 574.5099656737837,
      "semi_major_axis_km": 6950.17618266282,
      "eccentricity": 0.000387,
      "inclination_deg": 70.0005,
      "raan_deg": 125.4442,
      "arg_perigee_deg": 269.0953,
      "mean_anomaly_deg": 90.9762,
      "mean_motion_rev_day": 14.98335403
    },
    {
      "epoch": "2026-03-30T01:53:20.478336Z",
      "apogee_km": 574.7130402763114,
      "perigee_km": 569.3753011372082,
      "latitude_deg": 5.7449582387281235e-05,
      "longitude_deg": -92.55481029121044,
      "height_km": 574.5829873456206,
      "semi_major_axis_km": 6950.18117070676,
      "eccentricity": 0.000384,
      "inclination_deg": 70.0005,
      "raan_deg": 123.2561,
      "arg_perigee_deg": 267.6264,
      "mean_anomaly_deg": 92.4456,
      "mean_motion_rev_day": 14.9833379
    }
  ]
}